{
    "links": {
        "self": "http://www.neowsapp.com/rest/v1/neo/3825654?api_key=iIulBulltgU6a56xZRHN4H3l9WmuAYTsLGpBGhQ2"
    },
    "id": "3825654",
    "neo_reference_id": "3825654",
    "name": "(2018 ND4)",
    "designation": "2018 ND4",
    "nasa_jpl_url": "http://ssd.jpl.nasa.gov/sbdb.cgi?sstr=3825654",
    "absolute_magnitude_h": 25.1,
    "estimated_diameter": {
        "kilometers": {
            "estimated_diameter_min": 0.0253837029,
            "estimated_diameter_max": 0.0567596853
        },
        "meters": {
            "estimated_diameter_min": 25.3837029364,
            "estimated_diameter_max": 56.7596852866
        },
        "miles": {
            "estimated_diameter_min": 0.0157726969,
            "estimated_diameter_max": 0.0352688224
        },
        "feet": {
            "estimated_diameter_min": 83.279867942,
            "estimated_diameter_max": 186.2194458756
        }
    },
    "is_potentially_hazardous_asteroid": false,
    "close_approach_data": [
        {
            "close_approach_date": "2018-07-14",
            "close_approach_date_full": "2018-Jul-14 23:26",
            "epoch_date_close_approach": 1531610760000,
            "relative_velocity": {
                "kilometers_per_second": "11.944260245",
                "kilometers_per_hour": "42999.3368819474",
                "miles_per_hour": "26718.1157420078"
            },
            "miss_distance": {
                "astronomical": "0.0324832931",
                "lunar": "12.6360010159",
                "kilometers": "4859431.458345697",
                "miles": "3019510.6916447386"
            },
            "orbiting_body": "Earth"
        },
        {
            "close_approach_date": "2021-11-07",
            "close_approach_date_full": "2021-Nov-07 02:22",
            "epoch_date_close_approach": 1636251720000,
            "relative_velocity": {
                "kilometers_per_second": "21.8490695383",
                "kilometers_per_hour": "78656.6503379228",
                "miles_per_hour": "48874.1836502499"
            },
            "miss_distance": {
                "astronomical": "0.3586461449",
                "lunar": "139.5133503661",
                "kilometers": "53652699.360751363",
                "miles": "33338241.4679722894"
            },
            "orbiting_body": "Earth"
        },
        {
            "close_approach_date": "2124-11-04",
            "close_approach_date_full": "2124-Nov-04 11:36",
            "epoch_date_close_approach": 4886393760000,
            "relative_velocity": {
                "kilometers_per_second": "19.1394673469",
                "kilometers_per_hour": "68902.0824488382",
                "miles_per_hour": "42813.0745082795"
            },
            "miss_distance": {
                "astronomical": "0.2670386052",
                "lunar": "103.8780174228",
                "kilometers": "39948406.545690924",
                "miles": "24822788.7794817912"
            },
            "orbiting_body": "Earth"
        }
    ],
    "orbital_data": {
        "orbit_id": "2",
        "orbit_determination_date": "2018-07-17 06:26:44",
        "first_observation_date": "2018-07-11",
        "last_observation_date": "2018-07-16",
        "data_arc_in_days": 5,
        "observations_used": 30,
        "orbit_uncertainty": "7",
        "minimum_orbit_intersection": ".0194101",
        "jupiter_tisserand_invariant": "3.488",
        "epoch_osculation": "2459000.5",
        "eccentricity": ".5685397022590953",
        "semi_major_axis": "2.136190723956565",
        "inclination": "3.092112648919249",
        "ascending_node_longitude": "275.2534783967486",
        "orbital_period": "1140.403296938325",
        "perihelion_distance": ".9216814857896581",
        "perihelion_argument": "63.04911666495482",
        "aphelion_distance": "3.350699962123472",
        "perihelion_time": "2459489.720246393330",
        "mean_anomaly": "205.5640305719639",
        "mean_motion": ".3156777965887181",
        "equinox": "J2000",
        "orbit_class": {
            "orbit_class_type": "APO",
            "orbit_class_description": "Near-Earth asteroid orbits which cross the Earth’s orbit similar to that of 1862 Apollo",
            "orbit_class_range": "a (semi-major axis) > 1.0 AU; q (perihelion) < 1.017 AU"
        }
    },
    "is_sentry_object": false
}